LUDI TANCE 1-01A (L-SA*)
1 51284U 22007A   26182.43322647  .00000658  00000+0  76794-4 0  9996
2 51284  97.8099 189.6506 0001594  89.8440 270.2959 14.88424373240599
LUDI TANCE 1-01B (L-SA*)
1 51822U 22018A   26183.00466470  .00000654  00000+0  76454-4 0  9992
2 51822  97.8104 190.2113 0001612  91.7915 268.3486 14.88417060235914
2022-023F               
1 51951U 22023F   26182.76933182  .00007238  00000+0  29197-3 0  9998
2 51951  63.4435 223.9070 0131908 341.9518  17.6933 15.17972646239926
MERIDIAN 10             
1 52145U 22030A   26182.42556045  .00000167  00000+0  00000+0 0  9996
2 52145  62.6790 139.2518 6787824 272.8490  17.6305  2.00611817 31318
OMNI-L1                 
1 52157U 22033A   26182.21522614  .00002426  00000+0  30642-3 0  9993
2 52157  97.8396 261.1201 0004185 226.4417 133.6450 14.82801097229534
ENMAP                   
1 52159U 22033C   26182.95432706  .00000278  00000+0  48812-4 0  9990
2 52159  97.9800 264.9946 0001474  76.7081 283.4292 14.74931281228835
ARCSAT-1                
1 52161U 22033E   26182.68032413  .00015441  00000+0  24038-3 0  9995
2 52161  97.2759 275.1717 0006047 134.1897 225.9855 15.53967487237953
GLOBAL-18               
1 52196U 22034B   26182.27829739  .00020994  00000+0  42001-3 0  9993
2 52196  52.9793 189.2688 0003896 342.1406  17.9462 15.46750614239145
GAOFEN-3 03             
1 52200U 22035A   26183.00718836 -.00000121  00000+0 -23490-4 0  9991
2 52200  98.4056 191.3722 0001595  98.2822 261.8549 14.42216415222987
DAQI-1                  
1 52257U 22039A   26182.97221043  .00000303  00000+0  76332-4 0  9994
2 52257  98.1489 121.5190 0002937 188.0188 172.0965 14.57685911224090
BRO-6                   
1 52422U 22047AE  26182.97639035  .00049437  00000+0  83130-3 0  9995
2 52422  97.3403 274.3247 0003721  21.0057 339.1347 15.51592638233441
JILIN-1 GAOFEN 3D27     
1 52444U 22048B   26182.93914212  .00170444  00000+0  94225-3 0  9999
2 52444  97.5732 298.2523 0003345 279.5737  80.5151 15.79129288231806
JILIN-1 GAOFEN 3D28     
1 52445U 22048C   26182.90667629  .00206631  00000+0  95424-3 0  9994
2 52445  97.5660 298.4347 0002746 256.4174 103.6789 15.82972471231859
VIGORIDE-3              
1 52760U 22057AE  26182.95749227  .00006381  00000+0  24028-3 0  9996
2 52760  97.6628 323.3253 0009649  75.8851 284.3459 15.27432832227411
ION SCV-006             
1 52761U 22057AF  26182.92758623  .00014940  00000+0  30993-3 0  9992
2 52761  97.6121 332.2602 0017861  63.7382 296.5699 15.45645511228396
SHERPA-AC1              
1 52763U 22057AH  26182.91674888  .00008827  00000+0  25021-3 0  9996
2 52763  97.6707 332.7594 0008329  48.3123 311.8832 15.36470017227963
OMNI-L2                 
1 52771U 22057AR  26182.44226274  .00001576  00000+0  20759-3 0  9992
2 52771  97.4709 243.8426 0005084 278.2950  81.7687 14.81408309222505
STEP CUBE LAB-II        
1 52897U 22065D   26182.90570656  .00000764  00000+0  15728-3 0  9995
2 52897  98.2245 326.7625 0008269 348.2692  11.8316 14.63325485213651
RANDEV                  
1 52898U 22065E   26182.97124833  .00000795  00000+0  16201-3 0  9996
2 52898  98.2228 327.1864 0007652 349.1850  10.9186 14.63713632213418
SNUGLITE-II             
1 52899U 22065F   26182.92694925  .00001020  00000+0  20211-3 0  9994
2 52899  98.2220 327.7326 0006986 347.6130  12.4899 14.64374547213151
MIMAN                   
1 52900U 22065G   26182.90129608  .00000596  00000+0  12875-3 0  9990
2 52900  98.2280 325.3109 0007207 350.0241  10.0816 14.61859686212590
STARLINK-4362           
1 53043U 22077A   26182.95292018  .00000136  00000+0  13338-4 0  9999
2 53043  97.2896   1.1382 0001590  91.1792 268.9618 15.05653090218103
LARES-2                 
1 53105U 22080A   26177.40365794 -.00000028  00000+0  00000+0 0  9996
2 53105  70.1592 302.1681 0005264 334.1364  25.8897  6.38965133 92253
GREENCUBE (IO-117)      
1 53109U 22080E   26181.72466670 -.00000003  00000+0  00000+0 0  9998
2 53109  70.1437 293.5372 0008958 286.6703  73.2973  6.42583253 92937
STARLINK-4410           
1 53204U 22084R   26182.91668981  .00053386  00000+0  14028-2 0  9998
2 53204  97.5988 244.4422 0001666  88.0454  91.3888 15.38423655  5848
COSMOS 2558             
1 53323U 22089A   26182.49057441  .00139889  00000+0  80594-3 0  9996
2 53323  97.2255 287.1682 0002664 243.8138 116.2855 15.78292621220082
TECMS                   
1 53346U 22090A   26182.95696830  .00004214  00000+0  19023-3 0  9997
2 53346  97.3133 250.6489 0004773 133.6350 226.5282 15.21507786217059
