OBJECT_NAME,OBJECT_ID,EPOCH,MEAN_MOTION,ECCENTRICITY,INCLINATION,RA_OF_ASC_NODE,ARG_OF_PERICENTER,MEAN_ANOMALY,EPHEMERIS_TYPE,CLASSIFICATION_TYPE,NORAD_CAT_ID,ELEMENT_SET_NO,REV_AT_EPOCH,BSTAR,MEAN_MOTION_DOT,MEAN_MOTION_DDOT
LUDI TANCE 1-01A (L-SAR 01A),2022-007A,2026-07-01T10:23:50.767008,14.88424373,.0001594,97.8099,189.6506,89.8440,270.2959,0,U,51284,999,24059,.76794061E-4,.658E-5,0
LUDI TANCE 1-01B (L-SAR 01B),2022-018A,2026-07-02T00:06:43.030080,14.88417060,.00016126,97.8104,190.2113,91.7915,268.3486,0,U,51822,999,23591,.76454093E-4,.654E-5,0
2022-023F,2022-023F,2026-07-01T18:27:50.269248,15.17972646,.01319085,63.4435,223.9070,341.9518,17.6933,0,U,51951,999,23992,.2919684E-3,.7238E-4,0
MERIDIAN 10,2022-030A,2026-07-01T10:12:48.422880,2.00611817,.67878242,62.6790,139.2518,272.8490,17.6305,0,U,52145,999,3131,0,.167E-5,0
OMNI-L1,2022-033A,2026-07-01T05:09:55.538496,14.82801097,.0004185,97.8396,261.1201,226.4417,133.6450,0,U,52157,999,22953,.30641708E-3,.2426E-4,0
ENMAP,2022-033C,2026-07-01T22:54:13.857984,14.74931281,.00014746,97.9800,264.9946,76.7081,283.4292,0,U,52159,999,22883,.4881215E-4,.278E-5,0
ARCSAT-1,2022-033E,2026-07-01T16:19:40.004832,15.53967487,.00060478,97.2759,275.1717,134.1897,225.9855,0,U,52161,999,23795,.24037702E-3,.15441E-3,0
GLOBAL-18,2022-034B,2026-07-01T06:40:44.894496,15.46750614,.00038966,52.9793,189.2688,342.1406,17.9462,0,U,52196,999,23914,.42001387E-3,.20994E-3,0
GAOFEN-3 03,2022-035A,2026-07-02T00:10:21.074304,14.42216415,.00015953,98.4056,191.3722,98.2822,261.8549,0,U,52200,999,22298,-.23490338E-4,-.121E-5,0
DAQI-1,2022-039A,2026-07-01T23:19:58.981152,14.57685911,.00029378,98.1489,121.5190,188.0188,172.0965,0,U,52257,999,22409,.76331893E-4,.303E-5,0
BRO-6,2022-047AE,2026-07-01T23:26:00.126240,15.51592638,.00037211,97.3403,274.3247,21.0057,339.1347,0,U,52422,999,23344,.83129921E-3,.49437E-3,0
JILIN-1 GAOFEN 3D27,2022-048B,2026-07-01T22:32:21.879168,15.79129288,.00033458,97.5732,298.2523,279.5737,80.5151,0,U,52444,999,23180,.94224898E-3,.170444E-2,0
JILIN-1 GAOFEN 3D28,2022-048C,2026-07-01T21:45:36.831456,15.82972471,.00027466,97.5660,298.4347,256.4174,103.6789,0,U,52445,999,23185,.95424266E-3,.206631E-2,0
VIGORIDE-3,2022-057AE,2026-07-01T22:58:47.332128,15.27432832,.00096494,97.6628,323.3253,75.8851,284.3459,0,U,52760,999,22741,.24027633E-3,.6381E-4,0
ION SCV-006,2022-057AF,2026-07-01T22:15:43.450272,15.45645511,.00178616,97.6121,332.2602,63.7382,296.5699,0,U,52761,999,22839,.30993078E-3,.1494E-3,0
SHERPA-AC1,2022-057AH,2026-07-01T22:00:07.103232,15.36470017,.00083295,97.6707,332.7594,48.3123,311.8832,0,U,52763,999,22796,.25021349E-3,.8827E-4,0
OMNI-L2,2022-057AR,2026-07-01T10:36:51.500736,14.81408309,.00050848,97.4709,243.8426,278.2950,81.7687,0,U,52771,999,22250,.20759438E-3,.1576E-4,0
STEP CUBE LAB-II,2022-065D,2026-07-01T21:44:13.046784,14.63325485,.00082694,98.2245,326.7625,348.2692,11.8316,0,U,52897,999,21365,.15727502E-3,.764E-5,0
RANDEV,2022-065E,2026-07-01T23:18:35.855712,14.63713632,.00076528,98.2228,327.1864,349.1850,10.9186,0,U,52898,999,21341,.16200747E-3,.795E-5,0
SNUGLITE-II,2022-065F,2026-07-01T22:14:48.415200,14.64374547,.00069863,98.2220,327.7326,347.6130,12.4899,0,U,52899,999,21315,.20211011E-3,.102E-4,0
MIMAN,2022-065G,2026-07-01T21:37:51.981312,14.61859686,.00072075,98.2280,325.3109,350.0241,10.0816,0,U,52900,999,21259,.12875184E-3,.596E-5,0
STARLINK-4362,2022-077A,2026-07-01T22:52:12.303552,15.05653090,.00015907,97.2896,1.1382,91.1792,268.9618,0,U,53043,999,21810,.13338448E-4,.136E-5,0
LARES-2,2022-080A,2026-06-26T09:41:16.046016,6.38965133,.0005264,70.1592,302.1681,334.1364,25.8897,0,U,53105,999,9225,0,-.28E-6,0
GREENCUBE (IO-117),2022-080E,2026-06-30T17:23:31.202880,6.42583253,.00089588,70.1437,293.5372,286.6703,73.2973,0,U,53109,999,9293,0,-.3E-7,0
STARLINK-4410,2022-084R,2026-07-01T22:00:01.999584,15.38423655,.00016668,97.5988,244.4422,88.0454,91.3888,0,U,53204,999,584,.14028182E-2,.53386E-3,0
COSMOS 2558,2022-089A,2026-07-01T11:46:25.629024,15.78292621,.0002664,97.2255,287.1682,243.8138,116.2855,0,U,53323,999,22008,.80594E-3,.139889E-2,0
TECMS,2022-090A,2026-07-01T22:58:02.061120,15.21507786,.00047732,97.3133,250.6489,133.6350,226.5282,0,U,53346,999,21705,.19023188E-3,.4214E-4,0
